ONEWEB-0395             
1 50475U 21132G   24280.17135771  .00000214  00000+0  56759-3 0  9999
2 50475  87.8935 144.3959 0001525  63.7112 296.4173 13.11414829134588
ONEWEB-0396             
1 50476U 21132H   24280.47042398  .00000053  00000+0  10084-3 0  9997
2 50476  87.9054  98.5978 0001429  88.2870 271.8426 13.18684140140092
ONEWEB-0397             
1 50477U 21132J   24280.48467093  .00000041  00000+0  70425-4 0  9995
2 50477  87.9053  98.5965 0001503  94.6534 265.4770 13.18687558140074
ONEWEB-0398             
1 50478U 21132K   24280.36801752  .00000146  00000+0  37536-3 0  9998
2 50478  87.8933 144.3319 0001882  66.3260 293.8066 13.11419942134503
ONEWEB-0399             
1 50479U 21132L   24280.58332701 -.00000810  00000+0 -23204-2 0  9992
2 50479  87.8934 144.3077 0001316  84.3491 275.7787 13.11417313134525
ONEWEB-0400             
1 50480U 21132M   24280.46410227  .00000051  00000+0  95718-4 0  9997
2 50480  87.9050  98.5997 0001759  82.6983 277.4349 13.18684562140064
ONEWEB-0401             
1 50481U 21132N   24280.05152036  .00000069  00000+0  14251-3 0  9995
2 50481  87.9049  98.6780 0001582  98.5462 261.5850 13.18685295140016
ONEWEB-0402             
1 50482U 21132P   24280.47202290  .00000044  00000+0  77660-4 0  9997
2 50482  87.9049  98.5912 0001701 114.9597 245.1712 13.18687442140097
